[{"OBJECT_NAME":"STARLINK-31275","OBJECT_ID":"2024-045V","EPOCH":"2026-03-09T18:54:30.335904","MEAN_MOTION":15.27567189,"ECCENTRICITY":0.00019977,"INCLINATION":43.0053,"RA_OF_ASC_NODE":92.2241,"ARG_OF_PERICENTER":270.678,"MEAN_ANOMALY":89.3843,"EPHEMERIS_TYPE":0,"CLASSIFICATION_TYPE":"U","NORAD_CAT_ID":59197,"ELEMENT_SET_NO":999,"REV_AT_EPOCH":11317,"BSTAR":1.1677939e-5,"MEAN_MOTION_DOT":5.9e-7,"MEAN_MOTION_DDOT":0},{"OBJECT_NAME":"REAL","OBJECT_ID":"2025-154G","EPOCH":"2026-03-09T17:20:09.670560","MEAN_MOTION":15.28408058,"ECCENTRICITY":0.00018528,"INCLINATION":97.4133,"RA_OF_ASC_NODE":137.2581,"ARG_OF_PERICENTER":118.5876,"MEAN_ANOMALY":241.555,"EPHEMERIS_TYPE":0,"CLASSIFICATION_TYPE":"U","NORAD_CAT_ID":64875,"ELEMENT_SET_NO":999,"REV_AT_EPOCH":3483,"BSTAR":0.0008290401,"MEAN_MOTION_DOT":0.00022901,"MEAN_MOTION_DDOT":0}]
